{
    "links": {
        "self": "http://www.neowsapp.com/rest/v1/neo/3638376?api_key=iIulBulltgU6a56xZRHN4H3l9WmuAYTsLGpBGhQ2"
    },
    "id": "3638376",
    "neo_reference_id": "3638376",
    "name": "(2013 JH22)",
    "designation": "2013 JH22",
    "nasa_jpl_url": "http://ssd.jpl.nasa.gov/sbdb.cgi?sstr=3638376",
    "absolute_magnitude_h": 24.8,
    "estimated_diameter": {
        "kilometers": {
            "estimated_diameter_min": 0.0291443905,
            "estimated_diameter_max": 0.0651688382
        },
        "meters": {
            "estimated_diameter_min": 29.1443904535,
            "estimated_diameter_max": 65.1688382168
        },
        "miles": {
            "estimated_diameter_min": 0.018109479,
            "estimated_diameter_max": 0.0404940262
        },
        "feet": {
            "estimated_diameter_min": 95.6180819754,
            "estimated_diameter_max": 213.8085311752
        }
    },
    "is_potentially_hazardous_asteroid": false,
    "close_approach_data": [
        {
            "close_approach_date": "2013-04-04",
            "close_approach_date_full": "2013-Apr-04 02:59",
            "epoch_date_close_approach": 1365044340000,
            "relative_velocity": {
                "kilometers_per_second": "5.1672410747",
                "kilometers_per_hour": "18602.0678687652",
                "miles_per_hour": "11558.6015599002"
            },
            "miss_distance": {
                "astronomical": "0.0610625913",
                "lunar": "23.7533480157",
                "kilometers": "9134833.595160531",
                "miles": "5676122.3907400878"
            },
            "orbiting_body": "Earth"
        }
    ],
    "orbital_data": {
        "orbit_id": "5",
        "orbit_determination_date": "2017-04-06 08:45:53",
        "first_observation_date": "2013-05-10",
        "last_observation_date": "2013-05-13",
        "data_arc_in_days": 3,
        "observations_used": 9,
        "orbit_uncertainty": "9",
        "minimum_orbit_intersection": ".0500674",
        "jupiter_tisserand_invariant": "4.355",
        "epoch_osculation": "2456423.5",
        "eccentricity": ".3371960460510993",
        "semi_major_axis": "1.564874005225031",
        "inclination": "3.934006053434098",
        "ascending_node_longitude": "206.1307861067943",
        "orbital_period": "715.0188502998813",
        "perihelion_distance": "1.037204678095003",
        "perihelion_argument": "328.9442073515538",
        "aphelion_distance": "2.092543332355059",
        "perihelion_time": "2456370.361590786898",
        "mean_anomaly": "26.75429788836142",
        "mean_motion": ".5034832296365541",
        "equinox": "J2000",
        "orbit_class": {
            "orbit_class_type": "AMO",
            "orbit_class_description": "Near-Earth asteroid orbits similar to that of 1221 Amor",
            "orbit_class_range": "1.017 AU < q (perihelion) < 1.3 AU"
        }
    },
    "is_sentry_object": false
}